[{"OBJECT_NAME":"PCSAT (NO-44)","OBJECT_ID":"2001-043C","EPOCH":"2026-03-09T13:24:02.117376","MEAN_MOTION":14.31912221,"ECCENTRICITY":0.0007015,"INCLINATION":67.0506,"RA_OF_ASC_NODE":141.9526,"ARG_OF_PERICENTER":265.3804,"MEAN_ANOMALY":94.6497,"EPHEMERIS_TYPE":0,"CLASSIFICATION_TYPE":"U","NORAD_CAT_ID":26931,"ELEMENT_SET_NO":999,"REV_AT_EPOCH":27618,"BSTAR":0.00011176,"MEAN_MOTION_DOT":2.17e-6,"MEAN_MOTION_DDOT":0},{"OBJECT_NAME":"COSMOS 2056","OBJECT_ID":"1990-004A","EPOCH":"2026-03-09T21:17:28.136544","MEAN_MOTION":14.34248146,"ECCENTRICITY":0.00210102,"INCLINATION":74.0346,"RA_OF_ASC_NODE":348.1772,"ARG_OF_PERICENTER":68.4541,"MEAN_ANOMALY":291.8848,"EPHEMERIS_TYPE":0,"CLASSIFICATION_TYPE":"U","NORAD_CAT_ID":20432,"ELEMENT_SET_NO":999,"REV_AT_EPOCH":88949,"BSTAR":8.3302337e-5,"MEAN_MOTION_DOT":2.08e-6,"MEAN_MOTION_DDOT":0}]
